OBJECT_NAME,OBJECT_ID,EPOCH,MEAN_MOTION,ECCENTRICITY,INCLINATION,RA_OF_ASC_NODE,ARG_OF_PERICENTER,MEAN_ANOMALY,EPHEMERIS_TYPE,CLASSIFICATION_TYPE,NORAD_CAT_ID,ELEMENT_SET_NO,REV_AT_EPOCH,BSTAR,MEAN_MOTION_DOT,MEAN_MOTION_DDOT
STARLINK-31432,2024-106L,2026-06-06T22:57:26.943840,15.27539632,.00013423,42.9988,188.5078,285.5762,74.4941,0,U,59932,999,11416,-.43518193E-2,-.117982E-2,0
STARLINK-31853,2024-106M,2026-06-06T08:38:55.262976,15.27581865,.00017323,43.0012,191.7749,271.8489,88.2164,0,U,59933,999,11408,.37028028E-4,.757E-5,0
STARLINK-31971,2024-106N,2026-06-06T09:22:08.233248,15.27576228,.00014639,43.0017,188.3898,280.9274,79.1413,0,U,59934,999,11400,-.15385811E-4,-.685E-5,0
STARLINK-31962,2024-106Q,2026-06-06T18:35:18.712896,15.27580390,.0001503,43.0026,189.7166,280.3095,79.7587,0,U,59936,999,11414,.2363818E-4,.388E-5,0
STARLINK-31879,2024-106R,2026-06-06T09:25:10.881120,15.27582757,.00013713,42.9982,192.0103,280.9965,79.0733,0,U,59937,999,11413,.10581168E-3,.2651E-4,0
STARLINK-31876,2024-106S,2026-06-01T12:20:14.803872,15.27574642,.00015932,43.0034,219.0446,265.1922,94.8748,0,U,59938,999,11335,.32267716E-4,.626E-5,0
STARLINK-31955,2024-106T,2026-06-06T18:57:18.537696,15.27576689,.00012224,42.9991,188.9713,270.1427,89.9285,0,U,59939,999,11419,.246879E-5,-.194E-5,0
STARLINK-31946,2024-106U,2026-06-06T18:44:33.462240,15.27584132,.00007628,42.9986,189.7641,265.9833,94.0931,0,U,59940,999,10477,.39395859E-4,.823E-5,0
STARLINK-31948,2024-106V,2026-06-06T09:11:02.828832,15.27577357,.0000277,42.9975,188.3738,237.8915,122.1909,0,U,59941,999,11412,.13141199E-4,.1E-5,0
STARLINK-31900,2024-106W,2026-06-06T19:00:58.503456,15.27594033,.00024067,42.9988,189.0022,268.0595,91.9981,0,U,59942,999,11415,-.50685631E-4,-.1658E-4,0
STARLINK-31973,2024-106X,2026-06-06T08:59:16.685952,15.27580788,.00013098,42.9986,191.8815,273.8934,86.1768,0,U,59943,999,11408,.46892154E-4,.1029E-4,0
STARLINK-31966,2024-106Y,2026-06-06T04:11:15.595584,15.27580003,.0001296,43.0020,192.9515,267.9763,92.0940,0,U,59944,999,11410,.342238E-4,.68E-5,0
STARLINK-11145 [DTC],2024-107A,2026-06-06T07:54:40.253184,15.69683502,.0000952,53.1594,174.6091,64.7916,295.3200,0,U,59945,999,11606,.10384798E-3,.11997E-3,0
STARLINK-11113 [DTC],2024-107C,2026-06-06T08:01:33.932928,15.69721229,.00005506,53.1579,173.8987,108.0564,252.0514,0,U,59947,999,11607,.17601819E-4,.1546E-4,0
STARLINK-11123 [DTC],2024-107D,2026-06-06T18:22:18.514848,15.69719417,.00007296,53.1578,172.3464,95.1966,264.9135,0,U,59948,999,11619,.14122489E-4,.1124E-4,0
STARLINK-11138 [DTC],2024-107E,2026-06-06T17:54:03.242304,15.69718711,.00009748,53.1592,172.2157,73.6936,286.4190,0,U,59949,999,11619,.11945082E-4,.859E-5,0
STARLINK-11130 [DTC],2024-107F,2026-06-06T18:15:14.343552,15.69722703,.00005104,53.1585,172.3180,342.2291,17.8709,0,U,59950,999,11613,.1690112E-4,.1461E-4,0
STARLINK-11124 [DTC],2024-107H,2026-06-06T18:01:07.451616,15.69719945,.0000997,53.1587,172.2509,65.6985,294.4137,0,U,59952,999,11620,.16363398E-4,.1395E-4,0
STARLINK-11133 [DTC],2024-107K,2026-06-05T08:02:54.333312,15.69707164,.00009501,53.1586,179.0625,89.5449,270.5677,0,U,59954,999,11591,.2479207E-5,-.288E-5,0
STARLINK-11144 [DTC],2024-107L,2026-06-05T07:55:50.309760,15.69707668,.00011799,53.1595,179.0312,66.5056,293.6086,0,U,59955,999,11597,.155836E-5,-.4E-5,0
STARLINK-11134 [DTC],2024-107M,2026-06-06T08:15:41.708736,15.69718962,.00008435,53.1586,173.9728,95.1077,265.0038,0,U,59956,999,11600,.11590325E-4,.817E-5,0
STARLINK-11142 [DTC],2024-107N,2026-06-06T08:08:39.078816,15.69704959,.00014093,53.1584,173.9405,53.2748,306.8399,0,U,59957,999,11608,-.2043329E-5,-.837E-5,0
STARLINK-31995,2024-107P,2026-06-06T07:10:04.442592,15.30108010,.00012563,53.1627,13.9030,109.4246,250.6890,0,U,59958,999,11216,.55101994E-3,.15949E-3,0
STARLINK-31989,2024-107Q,2026-06-06T07:00:59.550624,15.30209866,.00011609,53.1607,13.8608,78.8987,281.2145,0,U,59959,999,11336,.99691328E-4,.2595E-4,0
STARLINK-31856,2024-107R,2026-06-06T22:38:22.927488,15.33579653,.0001681,53.1598,10.8126,111.8883,248.2298,0,U,59960,999,11346,.22114087E-3,.6914E-4,0
STARLINK-31993,2024-107S,2026-06-06T07:18:59.167008,15.30350238,.00014155,53.1618,13.9368,164.2251,195.8794,0,U,59961,999,11330,.65113717E-3,.19065E-3,0
STARLINK-31980,2024-107T,2026-06-06T07:04:15.991392,15.34404120,.00019151,53.1616,13.8591,30.3888,329.7226,0,U,59962,999,11336,.72234891E-4,.2065E-4,0
STARLINK-31991,2024-107U,2026-06-06T07:14:38.920704,15.30141240,.00010849,53.1624,13.9209,96.7129,263.3996,0,U,59963,999,11336,.38549023E-3,.11054E-3,0
STARLINK-31979,2024-107V,2026-06-06T22:00:03.000096,15.34360341,.0000949,53.1594,11.0324,83.1111,80.2610,0,U,59964,999,587,.49606593E-3,.164E-3,0
PREFIRE-1,2024-108A,2026-06-06T16:35:15.921600,15.23531094,.00097719,97.5310,312.4615,277.9154,82.0973,0,U,59965,999,11099,.24771774E-3,.5851E-4,0
