STARLINK-31432          
1 59932U 24106L   26157.95656185 -.00117982  00000+0 -43518-2 0  9999
2 59932  42.9988 188.5078 0001342 285.5762  74.4941 15.27539632114167
STARLINK-31853          
1 59933U 24106M   26157.36036184  .00000757  00000+0  37028-4 0  9996
2 59933  43.0012 191.7749 0001732 271.8489  88.2164 15.27581865114082
STARLINK-31971          
1 59934U 24106N   26157.39037307 -.00000685  00000+0 -15386-4 0  9993
2 59934  43.0017 188.3898 0001463 280.9274  79.1413 15.27576228114004
STARLINK-31962          
1 59936U 24106Q   26157.77452214  .00000388  00000+0  23638-4 0  9992
2 59936  43.0026 189.7166 0001503 280.3095  79.7587 15.27580390114147
STARLINK-31879          
1 59937U 24106R   26157.39248705  .00002651  00000+0  10581-3 0  9996
2 59937  42.9982 192.0103 0001371 280.9965  79.0733 15.27582757114134
STARLINK-31876          
1 59938U 24106S   26152.51406023  .00000626  00000+0  32268-4 0  9992
2 59938  43.0034 219.0446 0001593 265.1922  94.8748 15.27574642113357
STARLINK-31955          
1 59939U 24106T   26157.78979789 -.00000194  00000+0  24688-5 0  9990
2 59939  42.9991 188.9713 0001222 270.1427  89.9285 15.27576689114191
STARLINK-31946          
1 59940U 24106U   26157.78094285  .00000823  00000+0  39396-4 0  9990
2 59940  42.9986 189.7641 0000762 265.9833  94.0931 15.27584132104777
STARLINK-31948          
1 59941U 24106V   26157.38267163  .00000100  00000+0  13141-4 0  9992
2 59941  42.9975 188.3738 0000277 237.8915 122.1909 15.27577357114127
STARLINK-31900          
1 59942U 24106W   26157.79234379 -.00001658  00000+0 -50686-4 0  9997
2 59942  42.9988 189.0022 0002406 268.0595  91.9981 15.27594033114158
STARLINK-31973          
1 59943U 24106X   26157.37449868  .00001029  00000+0  46892-4 0  9997
2 59943  42.9986 191.8815 0001309 273.8934  86.1768 15.27580788114083
STARLINK-31966          
1 59944U 24106Y   26157.17448606  .00000680  00000+0  34224-4 0  9993
2 59944  43.0020 192.9515 0001296 267.9763  92.0940 15.27580003114104
STARLINK-11145 [DTC]    
1 59945U 24107A   26157.32963256  .00011997  00000+0  10385-3 0  9999
2 59945  53.1594 174.6091 0000952  64.7916 295.3200 15.69683502116068
STARLINK-11113 [DTC]    
1 59947U 24107C   26157.33442052  .00001546  00000+0  17602-4 0  9997
2 59947  53.1579 173.8987 0000550 108.0564 252.0514 15.69721229116071
STARLINK-11123 [DTC]    
1 59948U 24107D   26157.76549207  .00001124  00000+0  14122-4 0  9991
2 59948  53.1578 172.3464 0000729  95.1966 264.9135 15.69719417116195
STARLINK-11138 [DTC]    
1 59949U 24107E   26157.74587086  .00000859  00000+0  11945-4 0  9991
2 59949  53.1592 172.2157 0000974  73.6936 286.4190 15.69718711116196
STARLINK-11130 [DTC]    
1 59950U 24107F   26157.76058268  .00001461  00000+0  16901-4 0  9997
2 59950  53.1585 172.3180 0000510 342.2291  17.8709 15.69722703116134
STARLINK-11124 [DTC]    
1 59952U 24107H   26157.75078069  .00001395  00000+0  16363-4 0  9997
2 59952  53.1587 172.2509 0000997  65.6985 294.4137 15.69719945116207
STARLINK-11133 [DTC]    
1 59954U 24107K   26156.33535108 -.00000288  00000+0  24792-5 0  9991
2 59954  53.1586 179.0625 0000950  89.5449 270.5677 15.69707164115912
STARLINK-11144 [DTC]    
1 59955U 24107L   26156.33044340 -.00000400  00000+0  15584-5 0  9990
2 59955  53.1595 179.0312 0001179  66.5056 293.6086 15.69707668115974
STARLINK-11134 [DTC]    
1 59956U 24107M   26157.34423274  .00000817  00000+0  11590-4 0  9993
2 59956  53.1586 173.9728 0000843  95.1077 265.0038 15.69718962116001
STARLINK-11142 [DTC]    
1 59957U 24107N   26157.33934119 -.00000837  00000+0 -20433-5 0  9999
2 59957  53.1584 173.9405 0001409  53.2748 306.8399 15.69704959116084
STARLINK-31995          
1 59958U 24107P   26157.29866253  .00015949  00000+0  55102-3 0  9995
2 59958  53.1627  13.9030 0001256 109.4246 250.6890 15.30108010112168
STARLINK-31989          
1 59959U 24107Q   26157.29235591  .00002595  00000+0  99691-4 0  9996
2 59959  53.1607  13.8608 0001160  78.8987 281.2145 15.30209866113369
STARLINK-31856          
1 59960U 24107R   26157.94332092  .00006914  00000+0  22114-3 0  9998
2 59960  53.1598  10.8126 0001681 111.8883 248.2298 15.33579653113463
STARLINK-31993          
1 59961U 24107S   26157.30485147  .00019065  00000+0  65114-3 0  9997
2 59961  53.1618  13.9368 0001415 164.2251 195.8794 15.30350238113309
STARLINK-31980          
1 59962U 24107T   26157.29462953  .00002065  00000+0  72235-4 0  9991
2 59962  53.1616  13.8591 0001915  30.3888 329.7226 15.34404120113367
STARLINK-31991          
1 59963U 24107U   26157.30183936  .00011054  00000+0  38549-3 0  9992
2 59963  53.1624  13.9209 0001084  96.7129 263.3996 15.30141240113369
STARLINK-31979          
1 59964U 24107V   26157.91670139  .00016400  00000+0  49607-3 0  9993
2 59964  53.1594  11.0324 0000949  83.1111  80.2610 15.34360341  5877
PREFIRE-1               
1 59965U 24108A   26157.69115650  .00005851  00000+0  24772-3 0  9996
2 59965  97.5310 312.4615 0009771 277.9154  82.0973 15.23531094110994
